satname,norad_id,inclination_deg,eccentricity,mean_motion_rev_per_day,perigee_km,apogee_km,l1,l2
STARLINK-1411,45706,53.055,0.0001415,15.35492319,458.4910429641177,460.426082508372,1 45706U 20035BB  25286.66667824  .00142918  00000+0  40187-2 0  9996,2 45706  53.0550 326.3750 0001415  48.4220 163.1220 15.35492319  5911
STARLINK-1423,45710,53.0542,0.0001421,15.06412536,546.1890505997426,548.1572237407254,1 45710U 20035BF  25286.54290499  .00008453  00000+0  58546-3 0  9992,2 45710  53.0542 337.1903 0001421  88.1457 271.9695 15.06412536296970
STARLINK-1433,45711,53.0557,0.0001586,15.06386899,546.153344257842,548.3500775569428,1 45711U 20035BG  25286.52446422 -.00004596  00000+0 -28995-3 0  9991,2 45711  53.0557 337.2686 0001586  88.1445 271.9726 15.06386899296961
STARLINK-1434,45712,53.0512,0.0002272,15.13691729,523.384837141929,526.521601337552,1 45712U 20035BH  25286.51885593  .00042574  00000+0  23407-2 0  9995,2 45712  53.0512 334.4846 0002272 352.3753   7.7204 15.13691729297013
STARLINK-1465,45731,53.0529,0.0001108,15.0642651,546.3629901800114,547.8976294158629,1 45731U 20038B   25286.42494760  .00022790  00000+0  15428-2 0  9993,2 45731  53.0529 177.7160 0001108 102.8425 257.2688 15.06426510293997
STARLINK-1471,45735,53.0499,0.00034,15.39934858,443.98145932852003,448.6220776911059,1 45735U 20038F   25286.58176697  .00021512  00000+0  54057-3 0  9993,2 45735  53.0499 121.5988 0003400 122.8761 237.2571 15.39934858294809
STARLINK-1474,45738,53.0382,0.0004161,15.63672547,374.24835833986344,379.87003261373957,1 45738U 20038J   25285.88208391  .00082371  00000+0  86441-3 0  9997,2 45738  53.0382  85.6044 0004161 206.1805 153.8999 15.63672547295243
STARLINK-1475,45739,53.0519,0.0002428,15.68759268,360.81214118001026,364.08536962283324,1 45739U 20038K   25286.66667824  .00267207  00000+0  22253-2 0  9998,2 45739  53.0519  49.2196 0002428 256.4715  85.4354 15.68759268  6002
STARLINK-1480,45741,53.0533,0.000186,15.06386162,545.9658470195354,548.5420924602786,1 45741U 20038M   25286.40653462 -.00000697  00000+0 -27887-4 0  9996,2 45741  53.0533 177.8007 0001860  92.9069 267.2133 15.06386162294009
STARLINK-1500,45744,53.0402,0.0004843,15.26621445,482.5965930696002,489.2451195092026,1 45744U 20038Q   25286.63100603  .00019648  00000+0  75103-3 0  9995,2 45744  53.0402 158.2006 0004843 130.4630 229.6791 15.26621445294296
STARLINK-1504,45746,53.0277,0.0006503,15.37509435,449.0343246264347,457.9195216948974,1 45746U 20038S   25286.58394291  .00088007  00000+0  23389-2 0  9992,2 45746  53.0277 124.5813 0006503 118.3605 241.8054 15.37509435294757
STARLINK-1506,45747,53.05,0.0004435,15.20655237,500.8108076740309,506.91514165155695,1 45747U 20038T   25286.64790034  .00007629  00000+0  35740-3 0  9991,2 45747  53.0500 159.8408 0004435 151.5777 208.5460 15.20655237294271
STARLINK-1464,45751,53.0565,0.0001426,15.06400053,546.2238408197172,548.1989501821135,1 45751U 20038X   25286.60740202 -.00002931  00000+0 -17792-3 0  9994,2 45751  53.0565 156.8970 0001426  94.4991 265.6161 15.06400053294313
STARLINK-1477,45754,53.0523,0.0001411,15.0639722,546.2429103672457,548.1972461347286,1 45754U 20038AA  25286.35676074  .00003818  00000+0  27506-3 0  9991,2 45754  53.0523 158.0207 0001411  92.3626 267.7524 15.06397220294275
STARLINK-1478,45755,53.0553,0.0002035,15.06393341,545.8226543046248,548.6412794741491,1 45755U 20038AB  25286.64058418  .00000570  00000+0  57215-4 0  9993,2 45755  53.0553 156.7484 0002035  85.5429 274.5792 15.06393341294306
STARLINK-1484,45756,53.0173,0.0002728,15.57068013,394.2998002995282,397.99585010015744,1 45756U 20038AC  25286.11638260  .00072252  00000+0  97825-3 0  9991,2 45756  53.0173  71.6562 0002728 176.7612 183.3417 15.57068013295452
STARLINK-1493,45759,53.0509,6.94e-05,15.06385594,546.7750883511853,547.7363328594174,1 45759U 20038AF  25286.62952017 -.00000656  00000+0 -25193-4 0  9990,2 45759  53.0509 156.7973 0000694 102.4792 257.6275 15.06385594294304
STARLINK-1494,45760,53.0546,7.92e-05,15.49828615,416.68879893551184,417.76518459180716,1 45760U 20038AG  25286.66667824  .00082554  00000+0  14499-2 0  9995,2 45760  53.0546 147.3122 0000792 104.7761 169.2601 15.49828615  5921
STARLINK-1502,45764,53.0546,6.47e-05,15.06412668,546.7246650751858,547.6208001545874,1 45764U 20038AL  25284.93767325  .00003814  00000+0  27469-3 0  9998,2 45764  53.0546 164.3918 0000647  90.4782 269.6281 15.06412668294064
STARLINK-1470,45772,53.0489,0.0005533,15.16333849,513.1170355991862,520.7471190401475,1 45772U 20038AU  25286.57808146  .00038198  00000+0  19515-2 0  9991,2 45772  53.0489 130.8348 0005533 139.8415 220.2988 15.16333849294672
STARLINK-1482,45773,53.0529,0.0001504,15.06408614,546.1435889422537,548.2267258471993,1 45773U 20038AV  25286.29593954  .00000882  00000+0  78106-4 0  9991,2 45773  53.0529 138.2951 0001504  95.5869 264.5291 15.06408614294541
STARLINK-1485,45774,53.0427,0.0002631,15.91891046,295.2350302974837,298.74748278607603,1 45774U 20038AW  25286.66667824  .00475351  98486-4  14168-2 0  9994,2 45774  53.0427  76.2259 0002631 309.1370  23.6840 15.91891046  6054
STARLINK-1496,45780,53.0519,0.0001383,15.06400842,546.2512019820851,548.1667526794145,1 45780U 20038BC  25286.59450672  .00000683  00000+0  64752-4 0  9992,2 45780  53.0519 136.9543 0001383  95.1767 264.9379 15.06400842294577
STARLINK-1497,45781,53.042,0.0009847,15.4834654,414.8669775527251,428.25830602726637,1 45781U 20038BD  25286.66667824  .00181372  00000+0  32983-2 0  9994,2 45781  53.0420  87.6953 0009847 161.6537 276.6566 15.48346540  5919
STARLINK-1510,45784,53.0346,0.0005079,15.63437736,374.30424122161276,381.1668565567734,1 45784U 20038BG  25286.66667824  .00190158  00000+0  19799-2 0  9999,2 45784  53.0346  65.8705 0005079 117.6963 305.2900 15.63437736  5959
STARLINK-1513,45786,53.0551,0.0001515,15.06402742,546.1539650825962,548.2523431492937,1 45786U 20038BJ  25286.62398581  .00000686  00000+0  64954-4 0  9999,2 45786  53.0551 136.8234 0001515  93.0597 267.0565 15.06402742294594
STARLINK-1522,46027,53.0504,0.0002361,15.06387832,545.6137677572915,548.8839349563023,1 46027U 20055A   25286.14021594  .00001097  00000+0  92591-4 0  9996,2 46027  53.0504  68.9907 0002361  85.8467 274.2792 15.06387832286649
STARLINK-1523,46028,53.0561,0.0001166,15.06388704,546.4386790890521,548.0536784463402,1 46028U 20055B   25285.82322217 -.00000538  00000+0 -17248-4 0  9994,2 46028  53.0561  70.4153 0001166  90.7407 269.3716 15.06388704286612
